{"type": "FeatureCollection", "features": [ {"type": "Feature", "properties": {"norad_id": 36402, "name": "COSMOS 2460 (732)", "group": "gnss", "lat": 34.89543695159156, "lon": 122.55311618195881, "alt_km": 19130.073443000023, "timestamp": "2025-12-03T15:48:03.315448+00:00", "meta": {"OBJECT_NAME": "COSMOS 2460 (732)", "OBJECT_ID": "2010-007C", "EPOCH": "2025-12-01T05:49:09.827040", "MEAN_MOTION": 2.13106053, "ECCENTRICITY": 0.00028009, "INCLINATION": 65.536, "RA_OF_ASC_NODE": 321.162, "ARG_OF_PERICENTER": 269.9918, "MEAN_ANOMALY": 177.6167, "EPHEMERIS_TYPE": 0, "CLASSIFICATION_TYPE": "U", "NORAD_CAT_ID": 36402, "ELEMENT_SET_NO": 999, "REV_AT_EPOCH": 12251, "BSTAR": 0, "MEAN_MOTION_DOT": -2.6e-07, "MEAN_MOTION_DDOT": 0}, "tle": {"line1": "1 36402U 10007C   25335.24247485 -.00000026  00000+0  00000+0 0  9994", "line2": "2 36402  65.5360 321.1620 0002800 269.9918 177.6167  2.13106053122518"}}, "geometry": {"type": "Point", "coordinates": [122.55311618195881, 34.89543695159156]}}, {"type": "Feature", "properties": {"norad_id": 36585, "name": "GPS BIIF-1  (PRN 25)", "group": "gnss", "lat": 50.61356574296887, "lon": -24.582834965090903, "alt_km": 19930.775316766485, "timestamp": "2025-12-03T15:48:03.315459+00:00", "meta": {"OBJECT_NAME": "GPS BIIF-1  (PRN 25)", "OBJECT_ID": "2010-022A", "EPOCH": "2025-12-03T06:19:07.093920", "MEAN_MOTION": 2.00552613, "ECCENTRICITY": 0.01257121, "INCLINATION": 54.3021, "RA_OF_ASC_NODE": 216.4561, "ARG_OF_PERICENTER": 64.9696, "MEAN_ANOMALY": 116.7502, "EPHEMERIS_TYPE": 0, "CLASSIFICATION_TYPE": "U", "NORAD_CAT_ID": 36585, "ELEMENT_SET_NO": 999, "REV_AT_EPOCH": 11366, "BSTAR": 0, "MEAN_MOTION_DOT": 7.1e-07, "MEAN_MOTION_DDOT": 0}, "tle": {"line1": "1 36585U 10022A   25337.26327655  .00000071  00000+0  00000+0 0  9994", "line2": "2 36585  54.3021 216.4561 0125712  64.9696 116.7502  2.00552613113660"}}, "geometry": {"type": "Point", "coordinates": [-24.582834965090903, 50.61356574296887]}}, {"type": "Feature", "properties": {"norad_id": 36828, "name": "BEIDOU-2 IGSO-1 (C06)", "group": "gnss", "lat": -50.91524796011652, "lon": 47.25698856360083, "alt_km": 35617.61881140127, "timestamp": "2025-12-03T15:48:03.315469+00:00", "meta": {"OBJECT_NAME": "BEIDOU-2 IGSO-1 (C06)", "OBJECT_ID": "2010-036A", "EPOCH": "2025-12-02T23:10:21.569952", "MEAN_MOTION": 1.00278743, "ECCENTRICITY": 0.00512752, "INCLINATION": 54.2836, "RA_OF_ASC_NODE": 164.7371, "ARG_OF_PERICENTER": 215.7816, "MEAN_ANOMALY": 146.8764, "EPHEMERIS_TYPE": 0, "CLASSIFICATION_TYPE": "U", "NORAD_CAT_ID": 36828, "ELEMENT_SET_NO": 999, "REV_AT_EPOCH": 5613, "BSTAR": 0, "MEAN_MOTION_DOT": -2e-07, "MEAN_MOTION_DDOT": 0}, "tle": {"line1": "1 36828U 10036A   25336.96552743 -.00000020  00000+0  00000+0 0  9998", "line2": "2 36828  54.2836 164.7371 0051275 215.7816 146.8764  1.00278743 56139"}}, "geometry": {"type": "Point", "coordinates": [47.25698856360083, -50.91524796011652]}}, {"type": "Feature", "properties": {"norad_id": 37210, "name": "BEIDOU-2 G4 (C04)", "group": "gnss", "lat": 2.0365402332956766, "lon": 109.69941141890287, "alt_km": 35825.31500336138, "timestamp": "2025-12-03T15:48:03.315481+00:00", "meta": {"OBJECT_NAME": "BEIDOU-2 G4 (C04)", "OBJECT_ID": "2010-057A", "EPOCH": "2025-12-03T07:40:10.700256", "MEAN_MOTION": 1.0027133, "ECCENTRICITY": 0.00109016, "INCLINATION": 3.1595, "RA_OF_ASC_NODE": 69.9603, "ARG_OF_PERICENTER": 188.3414, "MEAN_ANOMALY": 89.2241, "EPHEMERIS_TYPE": 0, "CLASSIFICATION_TYPE": "U", "NORAD_CAT_ID": 37210, "ELEMENT_SET_NO": 999, "REV_AT_EPOCH": 5532, "BSTAR": 0, "MEAN_MOTION_DOT": -9.4e-07, "MEAN_MOTION_DDOT": 0}, "tle": {"line1": "1 37210U 10057A   25337.31956829 -.00000094  00000+0  00000+0 0  9991", "line2": "2 37210   3.1595  69.9603 0010901 188.3414  89.2241  1.00271330 55329"}}, "geometry": {"type": "Point", "coordinates": [109.69941141890287, 2.0365402332956766]}}, {"type": "Feature", "properties": {"norad_id": 37256, "name": "BEIDOU-2 IGSO-2 (C07)", "group": "gnss", "lat": 27.081116710587175, "lon": 66.74841116526815, "alt_km": 35720.1718808113, "timestamp": "2025-12-03T15:48:03.315491+00:00", "meta": {"OBJECT_NAME": "BEIDOU-2 IGSO-2 (C07)", "OBJECT_ID": "2010-068A", "EPOCH": "2025-12-02T18:32:21.656832", "MEAN_MOTION": 1.00289076, "ECCENTRICITY": 0.00492778, "INCLINATION": 47.9063, "RA_OF_ASC_NODE": 274.2734, "ARG_OF_PERICENTER": 216.2016, "MEAN_ANOMALY": 326.6202, "EPHEMERIS_TYPE": 0, "CLASSIFICATION_TYPE": "U", "NORAD_CAT_ID": 37256, "ELEMENT_SET_NO": 999, "REV_AT_EPOCH": 5482, "BSTAR": 0, "MEAN_MOTION_DOT": -2.27e-06, "MEAN_MOTION_DDOT": 0}, "tle": {"line1": "1 37256U 10068A   25336.77247288 -.00000227  00000+0  00000+0 0  9992", "line2": "2 37256  47.9063 274.2734 0049277 216.2016 326.6202  1.00289076 54823"}}, "geometry": {"type": "Point", "coordinates": [66.74841116526815, 27.081116710587175]}}, {"type": "Feature", "properties": {"norad_id": 37384, "name": "BEIDOU-2 IGSO-3 (C08)", "group": "gnss", "lat": 13.51628158758843, "lon": 49.33084732506724, "alt_km": 35933.68028289041, "timestamp": "2025-12-03T15:48:03.315503+00:00", "meta": {"OBJECT_NAME": "BEIDOU-2 IGSO-3 (C08)", "OBJECT_ID": "2011-013A", "EPOCH": "2025-11-29T21:04:05.094336", "MEAN_MOTION": 1.00273417, "ECCENTRICITY": 0.00356655, "INCLINATION": 62.1255, "RA_OF_ASC_NODE": 42.0418, "ARG_OF_PERICENTER": 186.0158, "MEAN_ANOMALY": 264.7363, "EPHEMERIS_TYPE": 0, "CLASSIFICATION_TYPE": "U", "NORAD_CAT_ID": 37384, "ELEMENT_SET_NO": 999, "REV_AT_EPOCH": 5366, "BSTAR": 0, "MEAN_MOTION_DOT": -1.94e-06, "MEAN_MOTION_DDOT": 0}, "tle": {"line1": "1 37384U 11013A   25333.87783674 -.00000194  00000+0  00000+0 0  9990", "line2": "2 37384  62.1255  42.0418 0035665 186.0158 264.7363  1.00273417 53667"}}, "geometry": {"type": "Point", "coordinates": [49.33084732506724, 13.51628158758843]}}, {"type": "Feature", "properties": {"norad_id": 37605, "name": "GSAT-8 (GAGAN/PRN 127)", "group": "gnss", "lat": -1.5779524103680256, "lon": 4.923936059345037, "alt_km": 35794.88053812997, "timestamp": "2025-12-03T15:48:03.315514+00:00", "meta": {"OBJECT_NAME": "GSAT-8 (GAGAN/PRN 127)", "OBJECT_ID": "2011-022A", "EPOCH": "2025-12-03T02:01:57.855360", "MEAN_MOTION": 1.00272588, "ECCENTRICITY": 0.00089998, "INCLINATION": 1.6227, "RA_OF_ASC_NODE": 84.2958, "ARG_OF_PERICENTER": 177.2344, "MEAN_ANOMALY": 256.2206, "EPHEMERIS_TYPE": 0, "CLASSIFICATION_TYPE": "U", "NORAD_CAT_ID": 37605, "ELEMENT_SET_NO": 999, "REV_AT_EPOCH": 5125, "BSTAR": 0, "MEAN_MOTION_DOT": 1.03e-06, "MEAN_MOTION_DDOT": 0}, "tle": {"line1": "1 37605U 11022A   25337.08469740  .00000103  00000+0  00000+0 0  9997", "line2": "2 37605   1.6227  84.2958 0008999 177.2344 256.2206  1.00272588 51259"}}, "geometry": {"type": "Point", "coordinates": [4.923936059345037, -1.5779524103680256]}}, {"type": "Feature", "properties": {"norad_id": 37763, "name": "BEIDOU-2 IGSO-4 (C09)", "group": "gnss", "lat": -42.79880491970745, "lon": 28.727295157885187, "alt_km": 35163.46350834468, "timestamp": "2025-12-03T15:48:03.315525+00:00", "meta": {"OBJECT_NAME": "BEIDOU-2 IGSO-4 (C09)", "OBJECT_ID": "2011-038A", "EPOCH": "2025-12-01T12:32:09.960864", "MEAN_MOTION": 1.00284074, "ECCENTRICITY": 0.01487808, "INCLINATION": 54.5808, "RA_OF_ASC_NODE": 167.4476, "ARG_OF_PERICENTER": 230.2031, "MEAN_ANOMALY": 315.0387, "EPHEMERIS_TYPE": 0, "CLASSIFICATION_TYPE": "U", "NORAD_CAT_ID": 37763, "ELEMENT_SET_NO": 999, "REV_AT_EPOCH": 5266, "BSTAR": 0, "MEAN_MOTION_DOT": 1.01e-06, "MEAN_MOTION_DDOT": 0}, "tle": {"line1": "1 37763U 11038A   25335.52233751  .00000101  00000+0  00000+0 0  9995", "line2": "2 37763  54.5808 167.4476 0148780 230.2031 315.0387  1.00284074 52664"}}, "geometry": {"type": "Point", "coordinates": [28.727295157885187, -42.79880491970745]}}, {"type": "Feature", "properties": {"norad_id": 37846, "name": "GSAT0101 (GALILEO-PFM)", "group": "gnss", "lat": 56.959519649586674, "lon": 72.79534116499632, "alt_km": 23221.577752522706, "timestamp": "2025-12-03T15:48:03.315536+00:00", "meta": {"OBJECT_NAME": "GSAT0101 (GALILEO-PFM)", "OBJECT_ID": "2011-060A", "EPOCH": "2025-12-01T04:03:41.055552", "MEAN_MOTION": 1.70475524, "ECCENTRICITY": 0.00027506, "INCLINATION": 57.0554, "RA_OF_ASC_NODE": 347.1343, "ARG_OF_PERICENTER": 309.7017, "MEAN_ANOMALY": 50.3167, "EPHEMERIS_TYPE": 0, "CLASSIFICATION_TYPE": "U", "NORAD_CAT_ID": 37846, "ELEMENT_SET_NO": 999, "REV_AT_EPOCH": 8774, "BSTAR": 0, "MEAN_MOTION_DOT": -5.9e-07, "MEAN_MOTION_DDOT": 0}, "tle": {"line1": "1 37846U 11060A   25335.16922518 -.00000059  00000+0  00000+0 0  9991", "line2": "2 37846  57.0554 347.1343 0002750 309.7017  50.3167  1.70475524 87745"}}, "geometry": {"type": "Point", "coordinates": [72.79534116499632, 56.959519649586674]}}, {"type": "Feature", "properties": {"norad_id": 37847, "name": "GSAT0102 (GALILEO-FM2)", "group": "gnss", "lat": 37.763543631141715, "lon": 136.91264872845582, "alt_km": 23231.381956860474, "timestamp": "2025-12-03T15:48:03.315547+00:00", "meta": {"OBJECT_NAME": "GSAT0102 (GALILEO-FM2)", "OBJECT_ID": "2011-060B", "EPOCH": "2025-12-02T06:27:38.704608", "MEAN_MOTION": 1.70475743, "ECCENTRICITY": 0.00047518, "INCLINATION": 57.0559, "RA_OF_ASC_NODE": 347.1049, "ARG_OF_PERICENTER": 306.1199, "MEAN_ANOMALY": 54.4344, "EPHEMERIS_TYPE": 0, "CLASSIFICATION_TYPE": "U", "NORAD_CAT_ID": 37847, "ELEMENT_SET_NO": 999, "REV_AT_EPOCH": 8777, "BSTAR": 0, "MEAN_MOTION_DOT": -6.2e-07, "MEAN_MOTION_DDOT": 0}, "tle": {"line1": "1 37847U 11060B   25336.26919797 -.00000062  00000+0  00000+0 0  9993", "line2": "2 37847  57.0559 347.1049 0004751 306.1199  54.4344  1.70475743 87777"}}, "geometry": {"type": "Point", "coordinates": [136.91264872845582, 37.763543631141715]}}]}